{
  "type": "FeatureCollection",
  "features": [
    {
      "type": "Feature",
      "properties": {
        "norad_id": 44334,
        "name": "EUTELSAT 7C",
        "group": "eutelsat",
        "lat": 0.04631667188815283,
        "lon": -89.77936100204305,
        "alt_km": 35771.37934307192,
        "timestamp": "2025-12-21T11:31:42.514000+00:00",
        "meta_object_name": "EUTELSAT 7C",
        "meta_object_id": "2019-034B",
        "meta_epoch": "2025-12-21T03:32:38.808096",
        "meta_mean_motion": 1.00275585,
        "meta_eccentricity": 0.0003296,
        "meta_inclination": 0.0735,
        "meta_ra_of_asc_node": 180.1639,
        "meta_arg_of_pericenter": 76.9681,
        "meta_mean_anomaly": 252.9905,
        "meta_ephemeris_type": 0,
        "meta_classification_type": "U",
        "meta_norad_cat_id": 44334,
        "meta_element_set_no": 999,
        "meta_rev_at_epoch": 505,
        "meta_bstar": 0,
        "meta_mean_motion_dot": 7.2e-07,
        "meta_mean_motion_ddot": 0,
        "tle_line1": "1 44334U 19034B   25355.14767139  .00000072  00000+0  00000+0 0  9990",
        "tle_line2": "2 44334   0.0735 180.1639 0003296  76.9681 252.9905  1.00275585  5055"
      },
      "geometry": {
        "type": "Point",
        "coordinates": [
          -89.77936100204305,
          0.04631667188815283
        ]
      }
    },
    {
      "type": "Feature",
      "properties": {
        "norad_id": 44624,
        "name": "EUTELSAT 5 WEST B",
        "group": "eutelsat",
        "lat": -0.09036179564985439,
        "lon": -101.78481080344675,
        "alt_km": 35773.72204072773,
        "timestamp": "2025-12-21T11:31:42.514012+00:00",
        "meta_object_name": "EUTELSAT 5 WEST B",
        "meta_object_id": "2019-067A",
        "meta_epoch": "2025-12-21T03:40:38.748864",
        "meta_mean_motion": 1.00271336,
        "meta_eccentricity": 0.000301,
        "meta_inclination": 0.0667,
        "meta_ra_of_asc_node": 336.125,
        "meta_arg_of_pericenter": 293.8202,
        "meta_mean_anomaly": 230.1981,
        "meta_ephemeris_type": 0,
        "meta_classification_type": "U",
        "meta_norad_cat_id": 44624,
        "meta_element_set_no": 999,
        "meta_rev_at_epoch": 2265,
        "meta_bstar": 0,
        "meta_mean_motion_dot": -1.9e-07,
        "meta_mean_motion_ddot": 0,
        "tle_line1": "1 44624U 19067A   25355.15322626 -.00000019  00000+0  00000+0 0  9999",
        "tle_line2": "2 44624   0.0667 336.1250 0003010 293.8202 230.1981  1.00271336 22653"
      },
      "geometry": {
        "type": "Point",
        "coordinates": [
          -101.78481080344675,
          -0.09036179564985439
        ]
      }
    },
    {
      "type": "Feature",
      "properties": {
        "norad_id": 45027,
        "name": "EUTELSAT KONNECT",
        "group": "eutelsat",
        "lat": -0.020625559574123407,
        "lon": -89.56637579744961,
        "alt_km": 35777.19249160062,
        "timestamp": "2025-12-21T11:31:42.514024+00:00",
        "meta_object_name": "EUTELSAT KONNECT",
        "meta_object_id": "2020-005B",
        "meta_epoch": "2025-12-21T03:32:38.808096",
        "meta_mean_motion": 1.00277731,
        "meta_eccentricity": 0.0001707,
        "meta_inclination": 0.0689,
        "meta_ra_of_asc_node": 95.0259,
        "meta_arg_of_pericenter": 180.8319,
        "meta_mean_anomaly": 234.4854,
        "meta_ephemeris_type": 0,
        "meta_classification_type": "U",
        "meta_norad_cat_id": 45027,
        "meta_element_set_no": 999,
        "meta_rev_at_epoch": 2255,
        "meta_bstar": 0,
        "meta_mean_motion_dot": 7.4e-07,
        "meta_mean_motion_ddot": 0,
        "tle_line1": "1 45027U 20005B   25355.14767139  .00000074  00000+0  00000+0 0  9992",
        "tle_line2": "2 45027   0.0689  95.0259 0001707 180.8319 234.4854  1.00277731 22550"
      },
      "geometry": {
        "type": "Point",
        "coordinates": [
          -89.56637579744961,
          -0.020625559574123407
        ]
      }
    },
    {
      "type": "Feature",
      "properties": {
        "norad_id": 49056,
        "name": "EUTELSAT QUANTUM",
        "group": "eutelsat",
        "lat": -0.040784214916779686,
        "lon": -49.05489500282824,
        "alt_km": 35773.78875150268,
        "timestamp": "2025-12-21T11:31:42.514036+00:00",
        "meta_object_name": "EUTELSAT QUANTUM",
        "meta_object_id": "2021-069B",
        "meta_epoch": "2025-12-21T03:09:06.881760",
        "meta_mean_motion": 1.00272298,
        "meta_eccentricity": 0.0003348,
        "meta_inclination": 0.0206,
        "meta_ra_of_asc_node": 37.9704,
        "meta_arg_of_pericenter": 241.7055,
        "meta_mean_anomaly": 265.2643,
        "meta_ephemeris_type": 0,
        "meta_classification_type": "U",
        "meta_norad_cat_id": 49056,
        "meta_element_set_no": 999,
        "meta_rev_at_epoch": 1614,
        "meta_bstar": 0,
        "meta_mean_motion_dot": 1.49e-06,
        "meta_mean_motion_ddot": 0,
        "tle_line1": "1 49056U 21069B   25355.13132965  .00000149  00000+0  00000+0 0  9994",
        "tle_line2": "2 49056   0.0206  37.9704 0003348 241.7055 265.2643  1.00272298 16147"
      },
      "geometry": {
        "type": "Point",
        "coordinates": [
          -49.05489500282824,
          -0.040784214916779686
        ]
      }
    },
    {
      "type": "Feature",
      "properties": {
        "norad_id": 53765,
        "name": "EUTELSAT KONNECT VHTS",
        "group": "eutelsat",
        "lat": -0.012586710391295719,
        "lon": -94.01964908090267,
        "alt_km": 35775.63265415974,
        "timestamp": "2025-12-21T11:31:42.514049+00:00",
        "meta_object_name": "EUTELSAT KONNECT VHTS",
        "meta_object_id": "2022-110A",
        "meta_epoch": "2025-12-21T03:32:38.808096",
        "meta_mean_motion": 1.00273259,
        "meta_eccentricity": 0.0002786,
        "meta_inclination": 0.0618,
        "meta_ra_of_asc_node": 99.8078,
        "meta_arg_of_pericenter": 134.255,
        "meta_mean_anomaly": 271.8139,
        "meta_ephemeris_type": 0,
        "meta_classification_type": "U",
        "meta_norad_cat_id": 53765,
        "meta_element_set_no": 999,
        "meta_rev_at_epoch": 504,
        "meta_bstar": 0,
        "meta_mean_motion_dot": 4.1e-07,
        "meta_mean_motion_ddot": 0,
        "tle_line1": "1 53765U 22110A   25355.14767139  .00000041  00000+0  00000+0 0  9993",
        "tle_line2": "2 53765   0.0618  99.8078 0002786 134.2550 271.8139  1.00273259  5046"
      },
      "geometry": {
        "type": "Point",
        "coordinates": [
          -94.01964908090267,
          -0.012586710391295719
        ]
      }
    },
    {
      "type": "Feature",
      "properties": {
        "norad_id": 54048,
        "name": "EUTELSAT HOTBIRD 13F",
        "group": "eutelsat",
        "lat": -0.03554338628853543,
        "lon": -83.80634422403904,
        "alt_km": 35784.48387424835,
        "timestamp": "2025-12-21T11:31:42.514061+00:00",
        "meta_object_name": "EUTELSAT HOTBIRD 13F",
        "meta_object_id": "2022-134A",
        "meta_epoch": "2025-12-21T02:59:15.326016",
        "meta_mean_motion": 1.00274346,
        "meta_eccentricity": 0.0002284,
        "meta_inclination": 0.0523,
        "meta_ra_of_asc_node": 292.1414,
        "meta_arg_of_pericenter": 68.9297,
        "meta_mean_anomaly": 146.6896,
        "meta_ephemeris_type": 0,
        "meta_classification_type": "U",
        "meta_norad_cat_id": 54048,
        "meta_element_set_no": 999,
        "meta_rev_at_epoch": 1159,
        "meta_bstar": 0,
        "meta_mean_motion_dot": 1.11e-06,
        "meta_mean_motion_ddot": 0,
        "tle_line1": "1 54048U 22134A   25355.12448294  .00000111  00000+0  00000+0 0  9998",
        "tle_line2": "2 54048   0.0523 292.1414 0002284  68.9297 146.6896  1.00274346 11596"
      },
      "geometry": {
        "type": "Point",
        "coordinates": [
          -83.80634422403904,
          -0.03554338628853543
        ]
      }
    },
    {
      "type": "Feature",
      "properties": {
        "norad_id": 54225,
        "name": "EUTELSAT HOTBIRD 13G",
        "group": "eutelsat",
        "lat": -0.0018079873695348188,
        "lon": -83.76257691309709,
        "alt_km": 35786.566514463535,
        "timestamp": "2025-12-21T11:31:42.514073+00:00",
        "meta_object_name": "EUTELSAT HOTBIRD 13G",
        "meta_object_id": "2022-146A",
        "meta_epoch": "2025-12-21T03:24:38.628000",
        "meta_mean_motion": 1.00273909,
        "meta_eccentricity": 0.0001862,
        "meta_inclination": 0.0535,
        "meta_ra_of_asc_node": 228.7562,
        "meta_arg_of_pericenter": 309.3055,
        "meta_mean_anomaly": 336.0609,
        "meta_ephemeris_type": 0,
        "meta_classification_type": "U",
        "meta_norad_cat_id": 54225,
        "meta_element_set_no": 999,
        "meta_rev_at_epoch": 568,
        "meta_bstar": 0,
        "meta_mean_motion_dot": 1.1e-06,
        "meta_mean_motion_ddot": 0,
        "tle_line1": "1 54225U 22146A   25355.14211375  .00000110  00000+0  00000+0 0  9997",
        "tle_line2": "2 54225   0.0535 228.7562 0001862 309.3055 336.0609  1.00273909  5684"
      },
      "geometry": {
        "type": "Point",
        "coordinates": [
          -83.76257691309709,
          -0.0018079873695348188
        ]
      }
    }
  ]
}